{
 "generated_at": "2026-06-17T09:51:32Z",
 "sources": [
  {
   "name": "CelesTrak",
   "url": "https://celestrak.org/NORAD/elements/",
   "license": "frei verfügbar; Attribution. Ursprünglich USSPACECOM/Space-Track."
  },
  {
   "name": "GCAT (J. McDowell, planet4589.org)",
   "url": "https://planet4589.org/space/gcat/",
   "license": "CC-BY 4.0"
  }
 ],
 "satellites": [
  {
   "norad": 40732,
   "name": "METEOSAT-11 (MSG-4)",
   "intl": "2015-034A",
   "group": "weather",
   "gcat": {
    "class": "C",
    "category": "MET",
    "owner": "EUMET",
    "state": "I-EUM"
   },
   "omm": {
    "OBJECT_NAME": "METEOSAT-11 (MSG-4)",
    "OBJECT_ID": "2015-034A",
    "EPOCH": "2026-06-16T18:11:38.091264",
    "MEAN_MOTION": 1.0028024,
    "ECCENTRICITY": 0.0001751,
    "INCLINATION": 3.2002,
    "RA_OF_ASC_NODE": 71.1126,
    "ARG_OF_PERICENTER": 11.1942,
    "MEAN_ANOMALY": 105.2805,
    "EPHEMERIS_TYPE": 0,
    "CLASSIFICATION_TYPE": "U",
    "NORAD_CAT_ID": 40732,
    "ELEMENT_SET_NO": 999,
    "REV_AT_EPOCH": 721,
    "BSTAR": 0,
    "MEAN_MOTION_DOT": 6.1e-7,
    "MEAN_MOTION_DDOT": 0
   }
  },
  {
   "norad": 54743,
   "name": "METEOSAT-12 (MTG-I1)",
   "intl": "2022-170C",
   "group": "weather",
   "gcat": {
    "class": "C",
    "category": "MET",
    "owner": "EUMET",
    "state": "I-EUM"
   },
   "omm": {
    "OBJECT_NAME": "METEOSAT-12 (MTG-I1)",
    "OBJECT_ID": "2022-170C",
    "EPOCH": "2026-06-16T16:26:06.374400",
    "MEAN_MOTION": 1.00272481,
    "ECCENTRICITY": 0.0003149,
    "INCLINATION": 0.7378,
    "RA_OF_ASC_NODE": 22.8954,
    "ARG_OF_PERICENTER": 71.4225,
    "MEAN_ANOMALY": 56.7455,
    "EPHEMERIS_TYPE": 0,
    "CLASSIFICATION_TYPE": "U",
    "NORAD_CAT_ID": 54743,
    "ELEMENT_SET_NO": 999,
    "REV_AT_EPOCH": 1297,
    "BSTAR": 0,
    "MEAN_MOTION_DOT": -1.1e-7,
    "MEAN_MOTION_DDOT": 0
   }
  },
  {
   "norad": 28912,
   "name": "METEOSAT-9 (MSG-2)",
   "intl": "2005-049B",
   "group": "weather",
   "gcat": {
    "class": "C",
    "category": "MET",
    "owner": "EUMET",
    "state": "I-EUM"
   },
   "omm": {
    "OBJECT_NAME": "METEOSAT-9 (MSG-2)",
    "OBJECT_ID": "2005-049B",
    "EPOCH": "2026-06-16T18:21:52.410816",
    "MEAN_MOTION": 1.00271877,
    "ECCENTRICITY": 0.0001615,
    "INCLINATION": 9.3608,
    "RA_OF_ASC_NODE": 54.1728,
    "ARG_OF_PERICENTER": 343.7501,
    "MEAN_ANOMALY": 188.2137,
    "EPHEMERIS_TYPE": 0,
    "CLASSIFICATION_TYPE": "U",
    "NORAD_CAT_ID": 28912,
    "ELEMENT_SET_NO": 999,
    "REV_AT_EPOCH": 699,
    "BSTAR": 0,
    "MEAN_MOTION_DOT": 0.00000116,
    "MEAN_MOTION_DDOT": 0
   }
  },
  {
   "norad": 38771,
   "name": "METOP-B",
   "intl": "2012-049A",
   "group": "weather",
   "gcat": {
    "class": "C",
    "category": "MET",
    "owner": "EUMET",
    "state": "I-EUM"
   },
   "omm": {
    "OBJECT_NAME": "METOP-B",
    "OBJECT_ID": "2012-049A",
    "EPOCH": "2026-06-17T04:33:03.597408",
    "MEAN_MOTION": 14.2143276,
    "ECCENTRICITY": 0.0002239,
    "INCLINATION": 98.6505,
    "RA_OF_ASC_NODE": 219.6888,
    "ARG_OF_PERICENTER": 19.7345,
    "MEAN_ANOMALY": 340.3919,
    "EPHEMERIS_TYPE": 0,
    "CLASSIFICATION_TYPE": "U",
    "NORAD_CAT_ID": 38771,
    "ELEMENT_SET_NO": 999,
    "REV_AT_EPOCH": 71326,
    "BSTAR": 0.000060599,
    "MEAN_MOTION_DOT": 8.9e-7,
    "MEAN_MOTION_DDOT": 0
   }
  },
  {
   "norad": 43689,
   "name": "METOP-C",
   "intl": "2018-087A",
   "group": "weather",
   "gcat": {
    "class": "C",
    "category": "MET",
    "owner": "EUMET",
    "state": "I-EUM"
   },
   "omm": {
    "OBJECT_NAME": "METOP-C",
    "OBJECT_ID": "2018-087A",
    "EPOCH": "2026-06-17T03:19:20.746848",
    "MEAN_MOTION": 14.21512138,
    "ECCENTRICITY": 0.0001764,
    "INCLINATION": 98.6645,
    "RA_OF_ASC_NODE": 227.7429,
    "ARG_OF_PERICENTER": 129.4848,
    "MEAN_ANOMALY": 230.6485,
    "EPHEMERIS_TYPE": 0,
    "CLASSIFICATION_TYPE": "U",
    "NORAD_CAT_ID": 43689,
    "ELEMENT_SET_NO": 999,
    "REV_AT_EPOCH": 39482,
    "BSTAR": 0.000060753,
    "MEAN_MOTION_DOT": 9e-7,
    "MEAN_MOTION_DDOT": 0
   }
  },
  {
   "norad": 65159,
   "name": "METOP-SGA1",
   "intl": "2025-172A",
   "group": "weather",
   "gcat": {
    "class": "C",
    "category": "MET",
    "owner": "EUMET",
    "state": "I-EUM"
   },
   "omm": {
    "OBJECT_NAME": "METOP-SGA1",
    "OBJECT_ID": "2025-172A",
    "EPOCH": "2026-06-16T03:40:47.624736",
    "MEAN_MOTION": 14.2150972,
    "ECCENTRICITY": 0.0000902,
    "INCLINATION": 98.6644,
    "RA_OF_ASC_NODE": 226.8998,
    "ARG_OF_PERICENTER": 93.8213,
    "MEAN_ANOMALY": 266.3067,
    "EPHEMERIS_TYPE": 0,
    "CLASSIFICATION_TYPE": "U",
    "NORAD_CAT_ID": 65159,
    "ELEMENT_SET_NO": 999,
    "REV_AT_EPOCH": 4364,
    "BSTAR": 0.000041999845,
    "MEAN_MOTION_DOT": 4.9e-7,
    "MEAN_MOTION_DDOT": 0
   }
  },
  {
   "norad": 64899,
   "name": "MICROCARB",
   "intl": "2025-156A",
   "group": "resource",
   "gcat": {
    "class": "C",
    "category": "SCI",
    "owner": "CNES",
    "state": "F"
   },
   "omm": {
    "OBJECT_NAME": "MICROCARB",
    "OBJECT_ID": "2025-156A",
    "EPOCH": "2026-06-17T01:57:46.416672",
    "MEAN_MOTION": 14.72325374,
    "ECCENTRICITY": 0.0014954,
    "INCLINATION": 97.9832,
    "RA_OF_ASC_NODE": 245.221,
    "ARG_OF_PERICENTER": 272.6079,
    "MEAN_ANOMALY": 87.3416,
    "EPHEMERIS_TYPE": 0,
    "CLASSIFICATION_TYPE": "U",
    "NORAD_CAT_ID": 64899,
    "ELEMENT_SET_NO": 999,
    "REV_AT_EPOCH": 4795,
    "BSTAR": 0.00007246,
    "MEAN_MOTION_DOT": 0.00000409,
    "MEAN_MOTION_DDOT": 0
   }
  },
  {
   "norad": 64723,
   "name": "MTG-S1",
   "intl": "2025-143A",
   "group": "weather",
   "gcat": {
    "class": "C",
    "category": "MET",
    "owner": "EUMET",
    "state": "I-EUM"
   },
   "omm": {
    "OBJECT_NAME": "MTG-S1",
    "OBJECT_ID": "2025-143A",
    "EPOCH": "2026-06-16T18:07:33.631104",
    "MEAN_MOTION": 1.00272107,
    "ECCENTRICITY": 0.0000992,
    "INCLINATION": 0.6036,
    "RA_OF_ASC_NODE": 338.8844,
    "ARG_OF_PERICENTER": 11.88,
    "MEAN_ANOMALY": 182.677,
    "EPHEMERIS_TYPE": 0,
    "CLASSIFICATION_TYPE": "U",
    "NORAD_CAT_ID": 64723,
    "ELEMENT_SET_NO": 999,
    "REV_AT_EPOCH": 341,
    "BSTAR": 0,
    "MEAN_MOTION_DOT": -3.4e-7,
    "MEAN_MOTION_DDOT": 0
   }
  },
  {
   "norad": 46277,
   "name": "NEMO-HD",
   "intl": "2020-061F",
   "group": "resource",
   "gcat": {
    "class": "A",
    "category": "IMG",
    "owner": "SPSI",
    "state": "SI"
   },
   "omm": {
    "OBJECT_NAME": "NEMO-HD",
    "OBJECT_ID": "2020-061F",
    "EPOCH": "2026-06-17T04:40:08.836608",
    "MEAN_MOTION": 15.44594372,
    "ECCENTRICITY": 0.0002277,
    "INCLINATION": 97.1917,
    "RA_OF_ASC_NODE": 230.1473,
    "ARG_OF_PERICENTER": 81.4002,
    "MEAN_ANOMALY": 278.7505,
    "EPHEMERIS_TYPE": 0,
    "CLASSIFICATION_TYPE": "U",
    "NORAD_CAT_ID": 46277,
    "ELEMENT_SET_NO": 999,
    "REV_AT_EPOCH": 32198,
    "BSTAR": 0.00019665,
    "MEAN_MOTION_DOT": 0.00009059,
    "MEAN_MOTION_DDOT": 0
   }
  },
  {
   "norad": 65053,
   "name": "NISAR",
   "intl": "2025-163A",
   "group": "sar",
   "gcat": {
    "class": "C",
    "category": "IMG-R",
    "owner": "ISRO/JPL",
    "state": "IN"
   },
   "omm": {
    "OBJECT_NAME": "NISAR",
    "OBJECT_ID": "2025-163A",
    "EPOCH": "2026-06-17T03:57:38.197152",
    "MEAN_MOTION": 14.42506497,
    "ECCENTRICITY": 0.0001221,
    "INCLINATION": 98.4054,
    "RA_OF_ASC_NODE": 355.8302,
    "ARG_OF_PERICENTER": 89.2179,
    "MEAN_ANOMALY": 270.9151,
    "EPHEMERIS_TYPE": 0,
    "CLASSIFICATION_TYPE": "U",
    "NORAD_CAT_ID": 65053,
    "ELEMENT_SET_NO": 999,
    "REV_AT_EPOCH": 4638,
    "BSTAR": 0.00008727,
    "MEAN_MOTION_DOT": 0.00000246,
    "MEAN_MOTION_DDOT": 0
   }
  }
 ]
}
